*******************************************************************************
 Revised: June 21, 2016                 Mars                            499 / 4
 
 PHYSICAL DATA (updated 2019-Oct-29):
  Vol. mean radius (km) = 3389.92+-0.04   Density (g/cm^3)      =  3.933(5+-4)
  Mass x10^23 (kg)      =    6.4171       Flattening, f         =  1/169.779
  Volume (x10^10 km^3)  =   16.318        Equatorial radius (km)=  3396.19
  Sidereal rot. period  =   24.622962 hr  Sid. rot. rate, rad/s =  0.0000708822 
  Mean solar day (sol)  =   88775.24415 s Polar gravity m/s^2   =  3.758
  Core radius (km)      = ~1700           Equ. gravity  m/s^2   =  3.71
  Geometric Albedo      =    0.150                                              

  GM (km^3/s^2)         = 42828.375214    Mass ratio (Sun/Mars) = 3098703.59
  GM 1-sigma (km^3/s^2) = +- 0.00028      Mass of atmosphere, kg= ~ 2.5 x 10^16
  Mean temperature (K)  =  210            Atmos. pressure (bar) =    0.0056 
  Obliquity to orbit    =   25.19 deg     Max. angular diam.    =  17.9"
  Mean sidereal orb per =    1.88081578 y Visual mag. V(1,0)    =  -1.52
  Mean sidereal orb per =  686.98 d       Orbital speed,  km/s  =  24.13
  Hill's sphere rad. Rp =  319.8          Escape speed, km/s    =   5.027
                                 Perihelion  Aphelion    Mean
  Solar Constant (W/m^2)         717         493         589
  Maximum Planetary IR (W/m^2)   470         315         390
  Minimum Planetary IR (W/m^2)    30          30          30
*******************************************************************************
 
 
*******************************************************************************
Ephemeris / WWW_USER Mon May  4 10:12:56 2020 Pasadena, USA      / Horizons    
*******************************************************************************
Target body name: Mars (499)                      {source: mar097}
Center body name: Sun (10)                        {source: mar097}
Center-site name: BODY CENTER
*******************************************************************************
Start time      : A.D. 2019-Oct-15 00:00:00.0000 TDB
Stop  time      : A.D. 2149-Oct-15 00:00:00.0000 TDB
Step-size       : 138240 minutes
*******************************************************************************
Center geodetic : 0.00000000,0.00000000,0.0000000 {E-lon(deg),Lat(deg),Alt(km)}
Center cylindric: 0.00000000,0.00000000,0.0000000 {E-lon(deg),Dxy(km),Dz(km)}
Center radii    : 696000.0 x 696000.0 x 696000.0 k{Equator, meridian, pole}    
Output units    : AU-D                                                         
Output type     : GEOMETRIC cartesian states
Output format   : 2 (position and velocity)
Reference frame : ICRF/J2000.0                                                 
Coordinate systm: Ecliptic and Mean Equinox of Reference Epoch                 
*******************************************************************************
            JDTDB,            Calendar Date (TDB),                      X,                      Y,                      Z,                     VX,                     VY,                     VZ,
**************************************************************************************************************************************************************************************************
$$SOE
2490451.500000000, A.D. 2106-Jul-11 00:00:00.0000, -1.312386772910425E+00, -8.966105498198230E-01,  1.314079327847027E-02,  8.410473289930069E-03, -1.035497556584080E-02, -4.220910768631462E-04,
2490547.500000000, A.D. 2106-Oct-15 00:00:00.0000, -1.524136558226752E-01, -1.460887078635293E+00, -2.694520628375896E-02,  1.443814174387167E-02, -2.465199627622605E-04, -3.567295902813595E-04,
2490643.500000000, A.D. 2107-Jan-19 00:00:00.0000,  1.088054781863599E+00, -8.562421265865641E-01, -4.446088272454161E-02,  9.176896700386629E-03,  1.219784853214495E-02,  3.252445778178349E-05,
2490739.500000000, A.D. 2107-Apr-25 00:00:00.0000,  1.314768413188450E+00,  5.290037651028913E-01, -2.091215360701002E-02, -4.697071314982046E-03,  1.418155693633394E-02,  4.119578617848134E-04,
2490835.500000000, A.D. 2107-Jul-30 00:00:00.0000,  3.805851709042235E-01,  1.484865995319038E+00,  2.189057727570978E-02, -1.303406013221977E-02,  4.668552986618397E-03,  4.152947756889078E-04,
2490931.500000000, A.D. 2107-Nov-03 00:00:00.0000, -8.601096113427611E-01,  1.390747911102156E+00,  5.012057773855891E-02, -1.138040381581687E-02, -6.164578938595040E-03,  1.476922095895014E-04,
2491027.500000000, A.D. 2108-Feb-07 00:00:00.0000, -1.600076642135620E+00,  4.566890946274346E-01,  4.853455794522769E-02, -3.324555337529861E-03, -1.225624378486145E-02, -1.762439220156686E-04,
2491123.500000000, A.D. 2108-May-13 00:00:00.0000, -1.427496906176752E+00, -7.342872271867124E-01,  1.934283295345470E-02,  6.918159106371753E-03, -1.124330875731489E-02, -4.043328513226716E-04,
2491219.500000000, A.D. 2108-Aug-17 00:00:00.0000, -3.665654585666460E-01, -1.441892125519994E+00, -2.133127871120469E-02,  1.408455010636053E-02, -2.241433956324658E-03, -3.898893288872082E-04,
2491315.500000000, A.D. 2108-Nov-21 00:00:00.0000,  9.376747801413838E-01, -1.027218134364803E+00, -4.437866561603818E-02,  1.085969112646937E-02,  1.063763518880111E-02, -4.114100302174027E-05,
2491411.500000000, A.D. 2109-Feb-25 00:00:00.0000,  1.369293476484217E+00,  3.117387792520733E-01, -2.678981403272390E-02, -2.576467298430969E-03,  1.484442118884184E-02,  3.742005176260802E-04,
2491507.500000000, A.D. 2109-Jun-01 00:00:00.0000,  5.714669128271199E-01,  1.401590260561616E+00,  1.549949181617212E-02, -1.243453124507625E-02,  6.477294036795336E-03,  4.385918525458850E-04,
2491603.500000000, A.D. 2109-Sep-05 00:00:00.0000, -6.836141480470688E-01,  1.472260002366037E+00,  4.753182886128604E-02, -1.217026126070963E-02, -4.699582437332058E-03,  1.976023728881788E-04,
2491699.500000000, A.D. 2109-Dec-10 00:00:00.0000, -1.538984956527109E+00,  6.364494979085454E-01,  5.081097419682128E-02, -4.832189859872823E-03, -1.173177938012086E-02, -1.285936148775318E-04,
2491795.500000000, A.D. 2110-Mar-16 00:00:00.0000, -1.519676417610615E+00, -5.605679323794003E-01,  2.522008526482191E-02,  5.357172487936373E-03, -1.192789515974776E-02, -3.807084040897657E-04,
2491891.500000000, A.D. 2110-Jun-20 00:00:00.0000, -5.736383732497670E-01, -1.394182537364397E+00, -1.529909417134562E-02,  1.346121296701747E-02, -4.117422366953982E-03, -4.140200841666215E-04,
2491987.500000000, A.D. 2110-Sep-24 00:00:00.0000,  7.636827859681974E-01, -1.173708535608480E+00, -4.321820111241326E-02,  1.225134925865533E-02,  8.839055342885239E-03, -1.126524228993716E-04,
2492083.500000000, A.D. 2110-Dec-29 00:00:00.0000,  1.390989092260586E+00,  8.620089591922489E-02, -3.204293441307857E-02, -3.364900240343127E-04,  1.516969017296760E-02,  3.265587604244889E-04,
2492179.500000000, A.D. 2111-Apr-04 00:00:00.0000,  7.513100275369635E-01,  1.291247007549270E+00,  8.815587690979685E-03, -1.157169891585865E-02,  8.235545864767465E-03,  4.544622515222902E-04,
2492275.500000000, A.D. 2111-Jul-09 00:00:00.0000, -4.967715410964419E-01,  1.530891762804532E+00,  4.421940455965116E-02, -1.278791185683002E-02, -3.124437387850891E-03,  2.456400220106118E-04,
2492371.500000000, A.D. 2111-Oct-13 00:00:00.0000, -1.455872697129512E+00,  8.070455025257415E-01,  5.236891759354160E-02, -6.266867600882101E-03, -1.103961190075954E-02, -7.917951748218056E-05,
2492467.500000000, A.D. 2112-Jan-17 00:00:00.0000, -1.587870302556116E+00, -3.782250510043479E-01,  3.070554431541547E-02,  3.756406426013922E-03, -1.241288654843551E-02, -3.519305352628822E-04,
2492563.500000000, A.D. 2112-Apr-22 00:00:00.0000, -7.689561984960712E-01, -1.319588989239142E+00, -8.980265956171390E-03,  1.260877871221907E-02, -5.841284385799069E-03, -4.294384141883962E-04,
2492659.500000000, A.D. 2112-Jul-27 00:00:00.0000,  5.718337254265853E-01, -1.291787884067379E+00, -4.102596778621938E-02,  1.331522032361544E-02,  6.871254049827034E-03, -1.798217712302189E-04,
2492755.500000000, A.D. 2112-Oct-31 00:00:00.0000,  1.378966591154113E+00, -1.416154146992289E-01, -3.652888949025534E-02,  1.955925520791057E-03,  1.512236945768539E-02,  2.697743103310544E-04,
2492851.500000000, A.D. 2113-Feb-04 00:00:00.0000,  9.167431356047394E-01,  1.154937859533075E+00,  1.929519717820533E-03, -1.043825734861957E-02,  9.898885819562124E-03,  4.617545234958037E-04,
2492947.500000000, A.D. 2113-May-11 00:00:00.0000, -3.016168031816231E-01,  1.565149366614608E+00,  4.018635608655503E-02, -1.322007971373780E-02, -1.453157154043686E-03,  2.912008045222728E-04,
2493043.500000000, A.D. 2113-Aug-15 00:00:00.0000, -1.351775285180495E+00,  9.661386923579329E-01,  5.316960462240004E-02, -7.619504105656197E-03, -1.018501514068317E-02, -2.833761666333245E-05,
2493139.500000000, A.D. 2113-Nov-19 00:00:00.0000, -1.632038733147006E+00, -1.898768285459562E-01,  3.572859028560167E-02,  2.131017370447772E-03, -1.269881813615049E-02, -3.183602305050237E-04,
2493235.500000000, A.D. 2114-Feb-23 00:00:00.0000, -9.502260289592134E-01, -1.220147623810771E+00, -2.483383345548367E-03,  1.155929881082267E-02, -7.394397718463507E-03, -4.364404194596507E-04,
2493331.500000000, A.D. 2114-May-30 00:00:00.0000,  3.665885264399307E-01, -1.379214396868346E+00, -3.786116254694809E-02,  1.404452776862390E-02,  4.801218336924955E-03, -2.409546008531799E-04,
2493427.500000000, A.D. 2114-Sep-03 00:00:00.0000,  1.332729419037439E+00, -3.654084345518201E-01, -4.009229055357270E-02,  4.226625731896905E-03,  1.469574833755855E-02,  2.055709475076346E-04,
2493523.500000000, A.D. 2114-Dec-08 00:00:00.0000,  1.063215245795020E+00,  9.949717991370760E-01, -4.985898429601840E-03, -9.038448654407354E-03,  1.141554992024498E-02,  4.594650723610309E-04,
